STARLINK-36421          
1 67464U 26008V   26165.31485458  .00023495  00000+0  86041-3 0  9995
2 67464  43.0057  19.2056 0001718 277.7192  82.3465 15.27587376 24356
STARLINK-36437          
1 67465U 26008W   26166.30335675  .00016017  00000+0  59014-3 0  9993
2 67465  43.0027  13.7156 0001949 264.9723  95.0906 15.27589195 24507
STARLINK-36520          
1 67466U 26008X   26166.87014152  .00013911  00000+0  51401-3 0  9992
2 67466  43.0028  11.0996 0003065 283.8481  76.2030 15.27584272 24582
STARLINK-36425          
1 67467U 26008Y   26166.86372103  .00023434  00000+0  85821-3 0  9999
2 67467  43.0011  11.0616 0000789 139.1070 220.9841 15.27586696 24581
STARLINK-36414          
1 67468U 26008Z   26165.31870069  .00016831  00000+0  61923-3 0  9993
2 67468  43.0069  19.2185 0002679 268.3834  91.6711 15.27607737 24353
STARLINK-36441          
1 67469U 26008AA  26165.88676960  .00018308  00000+0  67288-3 0  9991
2 67469  43.0050  16.6100 0000725 265.1143  94.9626 15.27594983 24438
STARLINK-36454          
1 67470U 26008AB  26166.83030446  .00017474  00000+0  64279-3 0  9992
2 67470  43.0028  10.7846 0001126 260.6489  99.4236 15.27590993 24586
STARLINK-36334          
1 67471U 26008AC  26166.87399565  .00015267  00000+0  56313-3 0  9995
2 67471  43.0015  11.1155 0000552 264.2275  95.8513 15.27582775 24583
STARLINK-36269          
1 67472U 26008AD  26166.85986586  .00032798  00000+0  11942-2 0  9995
2 67472  43.0006  11.0123 0001705 137.9641 222.1342 15.27630919 24581
STARLINK-36408          
1 67473U 26008AE  26166.85214904  .00016927  00000+0  62315-3 0  9991
2 67473  43.0014  10.9480 0001890 287.0841  72.9803 15.27583003 24583
STARLINK-36551          
1 67493U 26012A   26166.15525875  .00016450  00000+0  60569-3 0  9993
2 67493  42.9916 124.3393 0003119 269.6869  90.3625 15.27591562 22661
STARLINK-36396          
1 67494U 26012B   26166.92062526  .00018982  00000+0  69716-3 0  9993
2 67494  43.0032 119.7909 0002167 263.4777  96.5828 15.27596871 22780
STARLINK-36550          
1 67495U 26012C   26166.14754919  .00023480  00000+0  85963-3 0  9993
2 67495  43.0006 124.2919 0001472 257.9184 102.1502 15.27595677 22665
STARLINK-36534          
1 67496U 26012D   26165.61802062  .00009570  00000+0  35644-3 0  9993
2 67496  43.0022 127.1940 0001480 269.3277  90.7405 15.27615867 22588
STARLINK-36555          
1 67497U 26012E   26165.62063098  .00016396  00000+0  60434-3 0  9992
2 67497  42.9996 127.2132 0000520  50.1847 309.9051 15.27561074 22586
STARLINK-36081          
1 67498U 26012F   26166.92190368  .00019361  00000+0  71090-3 0  9993
2 67498  43.0068 119.7878 0002797 261.5957  98.4577 15.27594131 22785
STARLINK-36558          
1 67499U 26012G   26165.61031260  .00021017  00000+0  77072-3 0  9991
2 67499  43.0048 127.1450 0003669 263.8936  96.1498 15.27592758 22582
STARLINK-36557          
1 67500U 26012H   26165.60645600  .00019778  00000+0  72600-3 0  9995
2 67500  43.0033 127.1040 0003588 263.6966  96.3477 15.27590883 22581
STARLINK-36433          
1 67501U 26012J   26166.19108943  .00012858  00000+0  47590-3 0  9997
2 67501  43.0011 123.7477 0000689 272.2925  87.7848 15.27584448 22670
STARLINK-36554          
1 67502U 26012K   26166.18466737  .00013205  00000+0  48833-3 0  9993
2 67502  43.0069 123.6983 0001689 102.4196 257.6845 15.27592622 22678
STARLINK-36552          
1 67503U 26012L   26166.57312402  .00011784  00000+0  43694-3 0  9996
2 67503  42.9945 121.4468 0001535 272.2483  87.8192 15.27587459 22736
STARLINK-36512          
1 67504U 26012M   26166.17310116  .00011836  00000+0  43889-3 0  9997
2 67504  43.0028 123.6073 0000787 247.7718 112.3050 15.27584006 22678
STARLINK-36545          
1 67505U 26012N   26166.56157368  .00024130  00000+0  88287-3 0  9991
2 67505  42.9986 121.3590 0001679 268.4908  91.5751 15.27604450 22730
STARLINK-36553          
1 67506U 26012P   26166.55770476  .00019788  00000+0  72618-3 0  9996
2 67506  43.0000 121.3266 0002159 277.4120  82.6487 15.27600980 22731
STARLINK-36521          
1 67507U 26012Q   26166.16281771  .00017678  00000+0  64975-3 0  9992
2 67507  43.0012 123.5232 0000965 127.3762 232.7178 15.27612419 22678
STARLINK-36526          
1 67508U 26012R   26166.15896582  .00016311  00000+0  60068-3 0  9996
2 67508  43.0246 123.5106 0000285  17.6406 342.4456 15.27594829 22671
STARLINK-36541          
1 67509U 26012S   26165.17317603  .00021754  00000+0  79731-3 0  9994
2 67509  42.9822 129.8759 0002460 127.4416 232.6660 15.27595035 22511
STARLINK-36549          
1 67510U 26012T   26166.16024642  .00022056  00000+0  80827-3 0  9998
2 67510  42.9952 123.4827 0000768 260.3014  99.7751 15.27594132 22670
STARLINK-36540          
1 67511U 26012U   26166.15013348  .00023288  00000+0  85322-3 0  9992
2 67511  43.0011 124.3182 0002086 262.2690  97.7925 15.27575821 22663
STARLINK-36538          
1 67512U 26012V   26165.62189690  .00021471  00000+0  78720-3 0  9994
2 67512  42.9982 127.2123 0001342  97.4545 262.6459 15.27592071 22589
