OBJECT_NAME,OBJECT_ID,EPOCH,MEAN_MOTION,ECCENTRICITY,INCLINATION,RA_OF_ASC_NODE,ARG_OF_PERICENTER,MEAN_ANOMALY,EPHEMERIS_TYPE,CLASSIFICATION_TYPE,NORAD_CAT_ID,ELEMENT_SET_NO,REV_AT_EPOCH,BSTAR,MEAN_MOTION_DOT,MEAN_MOTION_DDOT
STARLINK-36421,2026-008V,2026-06-14T07:33:23.435712,15.27587376,.00017184,43.0057,19.2056,277.7192,82.3465,0,U,67464,999,2435,.86041273E-3,.23495E-3,0
STARLINK-36437,2026-008W,2026-06-15T07:16:50.023200,15.27589195,.00019491,43.0027,13.7156,264.9723,95.0906,0,U,67465,999,2450,.59013738E-3,.16017E-3,0
STARLINK-36520,2026-008X,2026-06-15T20:53:00.227328,15.27584272,.00030654,43.0028,11.0996,283.8481,76.2030,0,U,67466,999,2458,.51400524E-3,.13911E-3,0
STARLINK-36425,2026-008Y,2026-06-15T20:43:45.496992,15.27586696,.00007895,43.0011,11.0616,139.1070,220.9841,0,U,67467,999,2458,.85821192E-3,.23434E-3,0
STARLINK-36414,2026-008Z,2026-06-14T07:38:55.739616,15.27607737,.00026797,43.0069,19.2185,268.3834,91.6711,0,U,67468,999,2435,.61922757E-3,.16831E-3,0
STARLINK-36441,2026-008AA,2026-06-14T21:16:56.893440,15.27594983,.00007259,43.0050,16.6100,265.1143,94.9626,0,U,67469,999,2443,.67287951E-3,.18308E-3,0
STARLINK-36454,2026-008AB,2026-06-15T19:55:38.305344,15.27590993,.00011264,43.0028,10.7846,260.6489,99.4236,0,U,67470,999,2458,.64278575E-3,.17474E-3,0
STARLINK-36334,2026-008AC,2026-06-15T20:58:33.224160,15.27582775,.0000552,43.0015,11.1155,264.2275,95.8513,0,U,67471,999,2458,.56312611E-3,.15267E-3,0
STARLINK-36269,2026-008AD,2026-06-15T20:38:12.410304,15.27630919,.00017053,43.0006,11.0123,137.9641,222.1342,0,U,67472,999,2458,.11942207E-2,.32798E-3,0
STARLINK-36408,2026-008AE,2026-06-15T20:27:05.677056,15.27583003,.000189,43.0014,10.9480,287.0841,72.9803,0,U,67473,999,2458,.62315379E-3,.16927E-3,0
STARLINK-36551,2026-012A,2026-06-15T03:43:34.356000,15.27591562,.00031199,42.9916,124.3393,269.6869,90.3625,0,U,67493,999,2266,.6056924E-3,.1645E-3,0
STARLINK-36396,2026-012B,2026-06-15T22:05:42.022464,15.27596871,.00021678,43.0032,119.7909,263.4777,96.5828,0,U,67494,999,2278,.69715609E-3,.18982E-3,0
STARLINK-36550,2026-012C,2026-06-15T03:32:28.250016,15.27595677,.00014724,43.0006,124.2919,257.9184,102.1502,0,U,67495,999,2266,.85963029E-3,.2348E-3,0
STARLINK-36534,2026-012D,2026-06-14T14:49:56.981568,15.27615867,.000148,43.0022,127.1940,269.3277,90.7405,0,U,67496,999,2258,.35644E-3,.957E-4,0
STARLINK-36555,2026-012E,2026-06-14T14:53:42.516672,15.27561074,.000052,42.9996,127.2132,50.1847,309.9051,0,U,67497,999,2258,.60434E-3,.16396E-3,0
STARLINK-36081,2026-012F,2026-06-15T22:07:32.477952,15.27594131,.00027971,43.0068,119.7878,261.5957,98.4577,0,U,67498,999,2278,.71089795E-3,.19361E-3,0
STARLINK-36558,2026-012G,2026-06-14T14:38:51.008640,15.27592758,.0003669,43.0048,127.1450,263.8936,96.1498,0,U,67499,999,2258,.77072E-3,.21017E-3,0
STARLINK-36557,2026-012H,2026-06-14T14:33:17.798400,15.27590883,.0003588,43.0033,127.1040,263.6966,96.3477,0,U,67500,999,2258,.726E-3,.19778E-3,0
STARLINK-36433,2026-012J,2026-06-15T04:35:10.126752,15.27584448,.00006895,43.0011,123.7477,272.2925,87.7848,0,U,67501,999,2267,.47590081E-3,.12858E-3,0
STARLINK-36554,2026-012K,2026-06-15T04:25:55.260768,15.27592622,.00016897,43.0069,123.6983,102.4196,257.6845,0,U,67502,999,2267,.48832694E-3,.13205E-3,0
STARLINK-36552,2026-012L,2026-06-15T13:45:17.915328,15.27587459,.00015359,42.9945,121.4468,272.2483,87.8192,0,U,67503,999,2273,.43694331E-3,.11784E-3,0
STARLINK-36512,2026-012M,2026-06-15T04:09:15.940224,15.27584006,.00007875,43.0028,123.6073,247.7718,112.3050,0,U,67504,999,2267,.4388887E-3,.11836E-3,0
STARLINK-36545,2026-012N,2026-06-15T13:28:39.965952,15.27604450,.00016797,42.9986,121.3590,268.4908,91.5751,0,U,67505,999,2273,.88286591E-3,.2413E-3,0
STARLINK-36553,2026-012P,2026-06-15T13:23:05.691264,15.27600980,.00021599,43.0000,121.3266,277.4120,82.6487,0,U,67506,999,2273,.7261789E-3,.19788E-3,0
STARLINK-36521,2026-012Q,2026-06-15T03:54:27.450144,15.27612419,.00009655,43.0012,123.5232,127.3762,232.7178,0,U,67507,999,2267,.64975339E-3,.17678E-3,0
STARLINK-36526,2026-012R,2026-06-15T03:48:54.646848,15.27594829,.00002853,43.0246,123.5106,17.6406,342.4456,0,U,67508,999,2267,.60068412E-3,.16311E-3,0
STARLINK-36541,2026-012S,2026-06-14T04:09:22.408992,15.27595035,.00024601,42.9822,129.8759,127.4416,232.6660,0,U,67509,999,2251,.79730574E-3,.21754E-3,0
STARLINK-36549,2026-012T,2026-06-15T03:50:45.290688,15.27594132,.00007688,42.9952,123.4827,260.3014,99.7751,0,U,67510,999,2267,.8082689E-3,.22056E-3,0
STARLINK-36540,2026-012U,2026-06-15T03:36:11.532672,15.27575821,.00020865,43.0011,124.3182,262.2690,97.7925,0,U,67511,999,2266,.8532155E-3,.23288E-3,0
STARLINK-36538,2026-012V,2026-06-14T14:55:31.892160,15.27592071,.0001342,42.9982,127.2123,97.4545,262.6459,0,U,67512,999,2258,.7872E-3,.21471E-3,0
